$$SOE
2459580.500000000, A.D. 2022-Jan-01 00:00:00.0000, 2.327181273693890E+08, -1.470974412797055E+08, 1.972761106729890E+07,
2459587.500000000, A.D. 2022-Jan-08 00:00:00.0000, 2.388758473890063E+08, -1.340538293659638E+08, 2.001722336554829E+07,
2459594.500000000, A.D. 2022-Jan-15 00:00:00.0000, 2.444740913086428E+08, -1.206963159304042E+08, 2.025993074091192E+07,
2459601.500000000, A.D. 2022-Jan-22 00:00:00.0000, 2.494918459676317E+08, -1.070522869919925E+08, 2.045450896646610E+07,
2459608.500000000, A.D. 2022-Jan-29 00:00:00.0000, 2.539097504980539E+08, -9.315094382974511E+07, 2.059988473291109E+07,
2459615.500000000, A.D. 2022-Feb-05 00:00:00.0000, 2.577102949406685E+08, -7.902318070683639E+07, 2.069514940085515E+07,
2459622.500000000, A.D. 2022-Feb-12 00:00:00.0000, 2.608780100548197E+08, -6.470143688119181E+07, 2.073957126050600E+07,
2459629.500000000, A.D. 2022-Feb-19 00:00:00.0000, 2.633996427620757E+08, -5.021952163671878E+07, 2.073260630626143E+07,
2459636.500000000, A.D. 2022-Feb-26 00:00:00.0000, 2.652643117939036E+08, -3.561241493860249E+07, 2.067390730002532E+07,
2459643.500000000, A.D. 2022-Mar-05 00:00:00.0000, 2.664636398587557E+08, -2.091604697179000E+07, 2.056333080205763E+07,
2459650.500000000, A.D. 2022-Mar-12 00:00:00.0000, 2.669918591424719E+08, -6.167059982038025E+06, 2.040094193041215E+07,
2459657.500000000, A.D. 2022-Mar-19 00:00:00.0000, 2.668458873922110E+08, 8.597443630510809E+06, 2.018701668492974E+07,
2459664.500000000, A.D. 2022-Mar-26 00:00:00.0000, 2.660253725030321E+08, 2.334016247919111E+07, 1.992204173528052E+07,
2459671.500000000, A.D. 2022-Apr-02 00:00:00.0000, 2.645327043907934E+08, 3.802386173287091E+07, 1.960671163182105E+07,
2459678.500000000, A.D. 2022-Apr-09 00:00:00.0000, 2.623729940195710E+08, 5.261163802283382E+07, 1.924192345295909E+07,
2459685.500000000, A.D. 2022-Apr-16 00:00:00.0000, 2.595540204245987E+08, 6.706717935654782E+07, 1.882876901305202E+07,
2459692.500000000, A.D. 2022-Apr-23 00:00:00.0000, 2.560861458203737E+08, 8.135501631714381E+07, 1.836852500578390E+07,
2459699.500000000, A.D. 2022-Apr-30 00:00:00.0000, 2.519821991328664E+08, 9.544075786404043E+07, 1.786264130535972E+07,
2459706.500000000, A.D. 2022-May-07 00:00:00.0000, 2.472573339394172E+08, 1.092913058131020E+08, 1.731272725925757E+07,
2459713.500000000, A.D. 2022-May-14 00:00:00.0000, 2.419288656849882E+08, 1.228750477276887E+08, 1.672053640116297E+07,
2459720.500000000, A.D. 2022-May-21 00:00:00.0000, 2.360160900629448E+08, 1.361620264063655E+08, 1.608795016642095E+07,
2459727.500000000, A.D. 2022-May-28 00:00:00.0000, 2.295400862801214E+08, 1.491240832077084E+08, 1.541696092066877E+07,
2459734.500000000, A.D. 2022-Jun-04 00:00:00.0000, 2.225235097902619E+08, 1.617349738808433E+08, 1.470965459287287E+07,
2459741.500000000, A.D. 2022-Jun-11 00:00:00.0000, 2.149903789000539E+08, 1.739704566440965E+08, 1.396819322777008E+07,
2459748.500000000, A.D. 2022-Jun-18 00:00:00.0000, 2.069658593606599E+08, 1.858083529687593E+08, 1.319479775969689E+07,
2459755.500000000, A.D. 2022-Jun-25 00:00:00.0000, 1.984760507473099E+08, 1.972285821019267E+08, 1.239173127553894E+07,
2459762.500000000, A.D. 2022-Jul-02 00:00:00.0000, 1.895477781436903E+08, 2.082131708554718E+08, 1.156128298529454E+07,
2459769.500000000, A.D. 2022-Jul-09 00:00:00.0000, 1.802083924532784E+08, 2.187462408465039E+08, 1.070575307392460E+07,
2459776.500000000, A.D. 2022-Jul-16 00:00:00.0000, 1.704855817244319E+08, 2.288139765704365E+08, 9.827438677990928E+06,
2459783.500000000, A.D. 2022-Jul-23 00:00:00.0000, 1.604071932020333E+08, 2.384045768540533E+08, 8.928621301146895E+06,
2459790.500000000, A.D. 2022-Jul-30 00:00:00.0000, 1.500010675839967E+08, 2.475081889228448E+08, 8.011555458903193E+06,
2459797.500000000, A.D. 2022-Aug-06 00:00:00.0000, 1.392948900264001E+08, 2.561168283493582E+08, 7.078458314373553E+06,
2459804.500000000, A.D. 2022-Aug-13 00:00:00.0000, 1.283160575873432E+08, 2.642242901841097E+08, 6.131500613446593E+06,
2459811.500000000, A.D. 2022-Aug-20 00:00:00.0000, 1.170915616804453E+08, 2.718260531948563E+08, 5.172799004408106E+06,
2459818.500000000, A.D. 2022-Aug-27 00:00:00.0000, 1.056478854337538E+08, 2.789191787372195E+08, 4.204409633157656E+06,
2459825.500000000, A.D. 2022-Sep-03 00:00:00.0000, 9.401091575575690E+07, 2.855022061746071E+08, 3.228322918033466E+06,
2459832.500000000, A.D. 2022-Sep-10 00:00:00.0000, 8.220586952702606E+07, 2.915750466669470E+08, 2.246459419677228E+06,
2459839.500000000, A.D. 2022-Sep-17 00:00:00.0000, 7.025723310583620E+07, 2.971388768882894E+08, 1.260666716301888E+06,
2459846.500000000, A.D. 2022-Sep-24 00:00:00.0000, 5.818871425000532E+07, 3.021960339534568E+08, 2.727171831034571E+05,
2459853.500000000, A.D. 2022-Oct-01 00:00:00.0000, 4.602320566396683E+07, 3.067499126396354E+08, -7.156934415320158E+05,
2459860.500000000, A.D. 2022-Oct-08 00:00:00.0000, 3.378275951181840E+07, 3.108048663248716E+08, -1.702946791028991E+06,
2459867.500000000, A.D. 2022-Oct-15 00:00:00.0000, 2.148857089715104E+07, 3.143661135504908E+08, -2.687501815278366E+06,
2459874.500000000, A.D. 2022-Oct-22 00:00:00.0000, 9.160967082888693E+06, 3.174396490416982E+08, -3.667893960325778E+06,
2459881.500000000, A.D. 2022-Oct-29 00:00:00.0000, -3.180596073192358E+06, 3.200321569527229E+08, -4.642734104587227E+06,
2459888.500000000, A.D. 2022-Nov-05 00:00:00.0000, -1.551752933343459E+07, 3.221509293272814E+08, -5.610707296772569E+06,
2459895.500000000, A.D. 2022-Nov-12 00:00:00.0000, -2.783209980177545E+07, 3.238037911663230E+08, -6.570571083282843E+06,
2459902.500000000, A.D. 2022-Nov-19 00:00:00.0000, -4.010741670003679E+07, 3.249990311672134E+08, -7.521153500582054E+06,
2459909.500000000, A.D. 2022-Nov-26 00:00:00.0000, -5.232741369661268E+07, 3.257453376799974E+08, -8.461350845844269E+06,
2459916.500000000, A.D. 2022-Dec-03 00:00:00.0000, -6.447682830776908E+07, 3.260517397509786E+08, -9.390125292660326E+06,
2459923.500000000, A.D. 2022-Dec-10 00:00:00.0000, -7.654117893990076E+07, 3.259275531049358E+08, -1.030650239901532E+07,
2459930.500000000, A.D. 2022-Dec-17 00:00:00.0000, -8.850674009204647E+07, 3.253823308362539E+08, -1.120956855063616E+07,
2459937.500000000, A.D. 2022-Dec-24 00:00:00.0000, -1.003605160867659E+08, 3.244258185110795E+08, -1.209846838846283E+07,
2459944.500000000, A.D. 2022-Dec-31 00:00:00.0000, -1.120902133871250E+08, 3.230679135368941E+08, -1.297240227248143E+07,
2459951.500000000, A.D. 2023-Jan-07 00:00:00.0000, -1.236842117363515E+08, 3.213186294998134E+08, -1.383062373819491E+07,
2459958.500000000, A.D. 2023-Jan-14 00:00:00.0000, -1.351315363943707E+08, 3.191880657018538E+08, -1.467243674480672E+07,
2459965.500000000, A.D. 2023-Jan-21 00:00:00.0000, -1.464218323712940E+08, 3.166863784556168E+08, -1.549719293093130E+07,
2459972.500000000, A.D. 2023-Jan-28 00:00:00.0000, -1.575453372103257E+08, 3.138237536664406E+08, -1.630428924088953E+07,
2459979.500000000, A.D. 2023-Feb-04 00:00:00.0000, -1.684928527222671E+08, 3.106103834781812E+08, -1.709316566540648E+07,
2459986.500000000, A.D. 2023-Feb-11 00:00:00.0000, -1.792557176194214E+08, 3.070564465547403E+08, -1.786330295724033E+07,
2459993.500000000, A.D. 2023-Feb-18 00:00:00.0000, -1.898257812313420E+08, 3.031720909457943E+08, -1.861422038947245E+07,
2460000.500000000, A.D. 2023-Feb-25 00:00:00.0000, -2.001953781335259E+08, 2.989674191579458E+08, -1.934547359806328E+07,
2460007.500000000, A.D. 2023-Mar-04 00:00:00.0000, -2.103573036579642E+08, 2.944524752458789E+08, -2.005665251929776E+07,
2460014.500000000, A.D. 2023-Mar-11 00:00:00.0000, -2.203047903086998E+08, 2.896372337318882E+08, -2.074737942606711E+07,
2460021.500000000, A.D. 2023-Mar-18 00:00:00.0000, -2.300314850712978E+08, 2.845315901244760E+08, -2.141730707153115E+07,
2460028.500000000, A.D. 2023-Mar-25 00:00:00.0000, -2.395314274358094E+08, 2.791453528217168E+08, -2.206611696195254E+07,
2460035.500000000, A.D. 2023-Apr-01 00:00:00.0000, -2.487990277206396E+08, 2.734882366385417E+08, -2.269351776413341E+07,
2460042.500000000, A.D. 2023-Apr-08 00:00:00.0000, -2.578290463160106E+08, 2.675698590419510E+08, -2.329924368927342E+07,
2460049.500000000, A.D. 2023-Apr-15 00:00:00.0000, -2.666165761789388E+08, 2.613997378617530E+08, -2.388305272773974E+07,
2460056.500000000, A.D. 2023-Apr-22 00:00:00.0000, -2.751570267513986E+08, 2.549872873075749E+08, -2.444472514695661E+07,
2460063.500000000, A.D. 2023-Apr-29 00:00:00.0000, -2.834461065407526E+08, 2.483418144274230E+08, -2.498406231358269E+07,
2460070.500000000, A.D. 2023-May-06 00:00:00.0000, -2.914798061042677E+08, 2.414725176823072E+08, -2.550088552881385E+07,
2460077.500000000, A.D. 2023-May-13 00:00:00.0000, -2.992543823965114E+08, 2.343884866532358E+08, -2.599503485780034E+07,
2460084.500000000, A.D. 2023-May-20 00:00:00.0000, -3.067663442240210E+08, 2.270987023099659E+08, -2.646636801267518E+07,
2460091.500000000, A.D. 2023-May-27 00:00:00.0000, -3.140124385896127E+08, 2.196120377422355E+08, -2.691475930758401E+07,
2460098.500000000, A.D. 2023-Jun-03 00:00:00.0000, -3.209896378409607E+08, 2.119372593173787E+08, -2.734009868697354E+07,
2460105.500000000, A.D. 2023-Jun-10 00:00:00.0000, -3.276951275690205E+08, 2.040830281935178E+08, -2.774229082799747E+07,
2460112.500000000, A.D. 2023-Jun-17 00:00:00.0000, -3.341262951356558E+08, 1.960579020752781E+08, -2.812125432724117E+07,
2460119.500000000, A.D. 2023-Jun-24 00:00:00.0000, -3.402807184792036E+08, 1.878703372189506E+08, -2.847692099353929E+07,
2460126.500000000, A.D. 2023-Jul-01 00:00:00.0000, -3.461561549145488E+08, 1.795286914708086E+08, -2.880923519943505E+07,
2460133.500000000, A.D. 2023-Jul-08 00:00:00.0000, -3.517505315739205E+08, 1.710412291207942E+08, -2.911815306798036E+07,
2460140.500000000, A.D. 2023-Jul-15 00:00:00.0000, -3.570619387403487E+08, 1.624161247085046E+08, -2.940364160718744E+07,
2460147.500000000, A.D. 2023-Jul-22 00:00:00.0000, -3.620886225245163E+08, 1.536614647189730E+08, -2.966567819720472E+07,
$$EOE